TRANSPORTER-10 OBJECT AD
1 59125U 24043AD  26068.86032889  .00011954  00000+0  36311-3 0  9997
2 59125  97.5470 207.3753 0008984 221.4908 138.5653 15.34189901112026
STARLINK-33819          
1 63494U 25071B   26068.52341709  .00014711  00000+0  50798-3 0  9999
2 63494  53.1601 142.8886 0001108  97.8644 262.2482 15.30189397 52693
